NORAD_CAT_ID,OBJECT_NAME,OBJECT_TYPE,EPOCH,MEAN_MOTION,ECCENTRICITY,INCLINATION,RA_OF_ASC_NODE,ARG_OF_PERICENTER,MEAN_ANOMALY,BSTAR,MEAN_MOTION_DOT,MEAN_MOTION_DDOT,TLE_LINE0,TLE_LINE1,TLE_LINE2,SEMIMAJOR_AXIS,PERIOD,APOGEE,PERIGEE,DECAYED
53829.0,STARLINK-4759,PAYLOAD,2023-06-09 15:21:24,15.08833954,0.0001401,53.2171,131.4975,87.5806,272.5347,1.2623e-05,-8.7e-07,0.0,0 STARLINK-4759,1 53829U 22114M   23160.63986670 -.00000087  00000-0  12623-4 0  9998,2 53829  53.2171 131.4975 0001401  87.5806 272.5347 15.08833954 40716,6917.899,95.438,540.733,538.795,0.0
53829.0,STARLINK-4759,PAYLOAD,2023-06-10 07:15:16,15.08834273,0.0001266,53.2161,128.5242,90.1022,270.0115,2.7802e-07,-2.83e-06,0.0,0 STARLINK-4759,1 53829U 22114M   23161.30226895 -.00000283  00000-0  27802-6 0  9994,2 53829  53.2161 128.5242 0001266  90.1022 270.0115 15.08834273 41350,6917.898,95.438,540.639,538.887,0.0
53829.0,STARLINK-4759,PAYLOAD,2023-06-10 21:33:43,15.08840732,0.0001172,53.2168,125.8479,90.0343,270.0783,6.5908e-05,7.61e-06,0.0,0 STARLINK-4759,1 53829U 22114M   23161.89842352  .00000761  00000-0  65908-4 0  9997,2 53829  53.2168 125.8479 0001172  90.0343 270.0783 15.08840732 41448,6917.878,95.438,540.554,538.932,0.0
53829.0,STARLINK-4759,PAYLOAD,2023-06-11 03:55:15,15.08848668,0.0001265,53.2161,124.6594,88.3743,271.7394,0.00011668,1.57e-05,0.0,0 STARLINK-4759,1 53829U 22114M   23162.16337696  .00001570  00000-0  11668-3 0  9990,2 53829  53.2161 124.6594 0001265  88.3743 271.7394 15.08848668 40949,6917.854,95.437,540.594,538.844,0.0
53829.0,STARLINK-4759,PAYLOAD,2023-06-11 16:38:22,15.08808798,0.0001366,53.2162,122.2819,96.7722,263.3426,0.00062444,9.656e-05,0.0,0 STARLINK-4759,1 53829U 22114M   23162.69331238  .00009656  00000-0  62444-3 0  9995,2 53829  53.2162 122.2819 0001366  96.7722 263.3426 15.08808798 41568,6917.976,95.44,540.786,538.896,0.0
53829.0,STARLINK-4759,PAYLOAD,2023-06-12 03:46:03,15.08827894,0.0001295,53.2163,120.2004,91.8313,268.2827,0.00026757,3.972e-05,0.0,0 STARLINK-4759,1 53829U 22114M   23163.15698768  .00003972  00000-0  26757-3 0  9993,2 53829  53.2163 120.2004 0001295  91.8313 268.2827 15.08827894 41091,6917.917,95.438,540.678,538.887,0.0
53829.0,STARLINK-4759,PAYLOAD,2023-06-12 21:15:18,15.08839091,0.0001244,53.2164,116.929,93.5206,266.5928,-3.8787e-05,-9.05e-06,0.0,0 STARLINK-4759,1 53829U 22114M   23163.88562822 -.00000905  00000-0 -38787-4 0  9996,2 53829  53.2164 116.9290 0001244  93.5206 266.5928 15.08839091 41742,6917.883,95.438,540.609,538.888,0.0
53829.0,STARLINK-4759,PAYLOAD,2023-06-13 06:47:37,15.08839011,0.0001213,53.2165,115.1453,93.0098,267.1033,-3.2489e-05,-8.05e-06,0.0,0 STARLINK-4759,1 53829U 22114M   23164.28306769 -.00000805  00000-0 -32489-4 0  9999,2 53829  53.2165 115.1453 0001213  93.0098 267.1033 15.08839011 41268,6917.883,95.438,540.588,538.909,0.0
53829.0,STARLINK-4759,PAYLOAD,2023-06-13 21:06:05,15.08833585,0.000118,53.2166,112.4684,97.9494,262.1632,1.9835e-05,2.8e-07,0.0,0 STARLINK-4759,1 53829U 22114M   23164.87923043  .00000028  00000-0  19835-4 0  9999,2 53829  53.2166 112.4684 0001180  97.9494 262.1632 15.08833585 41890,6917.9,95.438,540.581,538.949,0.0
53829.0,STARLINK-4759,PAYLOAD,2023-06-14 06:38:23,15.08841885,0.0001071,53.2164,110.6851,92.9243,267.1871,2.8971e-05,1.73e-06,0.0,0 STARLINK-4759,1 53829U 22114M   23165.27666622  .00000173  00000-0  28971-4 0  9993,2 53829  53.2164 110.6851 0001071  92.9243 267.1871 15.08841885 41959,6917.875,95.437,540.481,538.999,0.0
53829.0,STARLINK-4759,PAYLOAD,2023-06-14 20:56:52,15.08828489,0.0001074,53.2162,108.0085,94.1414,265.9701,6.1287e-05,6.87e-06,0.0,0 STARLINK-4759,1 53829U 22114M   23165.87283562  .00000687  00000-0  61287-4 0  9994,2 53829  53.2162 108.0085 0001074  94.1414 265.9701 15.08828489 42048,6917.916,95.438,540.524,539.038,0.0
53829.0,STARLINK-4759,PAYLOAD,2023-06-15 03:18:25,15.08836938,0.0001056,53.2162,106.8195,95.6125,264.4987,8.817e-05,1.116e-05,0.0,0 STARLINK-4759,1 53829U 22114M   23166.13779084  .00001116  00000-0  88170-4 0  9991,2 53829  53.2162 106.8195 0001056  95.6125 264.4987 15.08836938 41543,6917.89,95.438,540.485,539.024,0.0
53829.0,STARLINK-4759,PAYLOAD,2023-06-15 06:29:11,15.08838007,0.0001086,53.2164,106.2248,95.4361,264.6755,9.7615e-05,1.266e-05,0.0,0 STARLINK-4759,1 53829U 22114M   23166.27027039  .00001266  00000-0  97615-4 0  9992,2 53829  53.2164 106.2248 0001086  95.4361 264.6755 15.08838007 42108,6917.886,95.438,540.503,539.0,0.0
53829.0,STARLINK-4759,PAYLOAD,2023-06-16 04:44:34,15.08846025,0.000113,53.2164,102.0617,96.8487,263.2634,0.00015176,2.129e-05,0.0,0 STARLINK-4759,1 53829U 22114M   23167.19762620  .00002129  00000-0  15176-3 0  9996,2 53829  53.2164 102.0617 0001130  96.8487 263.2634 15.08846025 41701,6917.862,95.437,540.509,538.945,0.0
53829.0,STARLINK-4759,PAYLOAD,2023-06-16 12:41:30,15.08847525,0.0001166,53.2177,100.5751,86.1679,273.9447,8.7642e-05,1.108e-05,0.0,0 STARLINK-4759,1 53829U 22114M   23167.52882644  .00001108  00000-0  87642-4 0  9996,2 53829  53.2177 100.5751 0001166  86.1679 273.9447 15.08847525 42292,6917.857,95.437,540.529,538.916,0.0
53829.0,STARLINK-4759,PAYLOAD,2023-06-17 12:32:19,15.08829666,0.000169,53.2173,96.1147,78.245,281.8731,-1.7236e-05,-5.62e-06,0.0,0 STARLINK-4759,1 53829U 22114M   23168.52244226 -.00000562  00000-0 -17236-4 0  9992,2 53829  53.2173  96.1147 0001690  78.2450 281.8731 15.08829666 42445,6917.912,95.438,540.946,538.608,0.0
53829.0,STARLINK-4759,PAYLOAD,2023-06-17 18:53:51,15.08830672,0.0001577,53.2169,94.9242,82.8882,277.2289,-4.6479e-05,-1.027e-05,0.0,0 STARLINK-4759,1 53829U 22114M   23168.78740321 -.00001027  00000-0 -46479-4 0  9995,2 53829  53.2169  94.9242 0001577  82.8882 277.2289 15.08830672 41946,6917.909,95.438,540.865,538.683,0.0
53829.0,STARLINK-4759,PAYLOAD,2023-06-18 12:23:05,15.08838701,0.0001311,53.2182,91.653,82.0201,278.094,-1.9937e-05,-6.05e-06,0.0,0 STARLINK-4759,1 53829U 22114M   23169.51603998 -.00000605  00000-0 -19937-4 0  9995,2 53829  53.2182  91.6530 0001311  82.0201 278.0940 15.08838701 42594,6917.884,95.438,540.656,538.842,0.0
53829.0,STARLINK-4759,PAYLOAD,2023-06-19 01:06:09,15.08849661,0.0001172,53.2172,89.2742,78.0027,282.1096,0.00014182,1.971e-05,0.0,0 STARLINK-4759,1 53829U 22114M   23170.04594839  .00001971  00000-0  14182-3 0  9999,2 53829  53.2172  89.2742 0001172  78.0027 282.1096 15.08849661 42132,6917.851,95.437,540.527,538.905,0.0
53829.0,STARLINK-4759,PAYLOAD,2023-06-19 12:13:52,15.08850283,0.0001013,53.2158,87.1933,88.5385,271.5723,0.00022219,3.251e-05,0.0,0 STARLINK-4759,1 53829U 22114M   23170.50963160  .00003251  00000-0  22219-3 0  9990,2 53829  53.2158  87.1933 0001013  88.5385 271.5723 15.08850283 42201,6917.849,95.437,540.415,539.013,0.0
53829.0,STARLINK-4759,PAYLOAD,2023-06-20 04:07:43,15.08849122,0.000128,53.217,84.219,84.007,276.1068,0.00031914,4.796e-05,0.0,0 STARLINK-4759,1 53829U 22114M   23171.17203450  .00004796  00000-0  31914-3 0  9990,2 53829  53.2170  84.2190 0001280  84.0070 276.1068 15.08849122 42300,6917.853,95.437,540.603,538.832,0.0
53829.0,STARLINK-4759,PAYLOAD,2023-06-20 18:26:11,15.08846208,0.0001278,53.2167,81.5419,91.7534,268.3605,3.2197e-05,2.25e-06,0.0,0 STARLINK-4759,1 53829U 22114M   23171.76819267  .00000225  00000-0  32197-4 0  9992,2 53829  53.2167  81.5419 0001278  91.7534 268.3605 15.08846208 42938,6917.861,95.437,540.611,538.842,0.0
53829.0,STARLINK-4759,PAYLOAD,2023-06-21 00:47:44,15.08850524,0.0001083,53.2165,80.3515,85.2885,274.8231,5.0347e-05,5.14e-06,0.0,0 STARLINK-4759,1 53829U 22114M   23172.03314982  .00000514  00000-0  50347-4 0  9995,2 53829  53.2165  80.3515 0001083  85.2885 274.8231 15.08850524 42439,6917.848,95.437,540.462,538.964,0.0
53829.0,STARLINK-4759,PAYLOAD,2023-06-21 10:20:03,15.08845995,0.0001112,53.2166,78.5684,87.9164,272.1956,1.9074e-06,-2.57e-06,0.0,0 STARLINK-4759,1 53829U 22114M   23172.43059055 -.00000257  00000-0  19074-5 0  9994,2 53829  53.2166  78.5684 0001112  87.9164 272.1956 15.08845995 43036,6917.862,95.437,540.496,538.958,0.0
53829.0,STARLINK-4759,PAYLOAD,2023-06-22 02:13:54,15.08837664,0.0001228,53.2166,75.5993,93.6061,266.5071,-4.2115e-05,-9.58e-06,0.0,0 STARLINK-4759,1 53829U 22114M   23173.09299674 -.00000958  00000-0 -42115-4 0  9990,2 53829  53.2166  75.5993 0001228  93.6061 266.5071 15.08837664 42593,6917.888,95.438,540.602,538.903,0.0
53829.0,STARLINK-4759,PAYLOAD,2023-06-23 10:01:37,15.08839423,0.0001148,53.2166,69.6527,100.438,259.6742,6.5967e-05,7.62e-06,0.0,0 STARLINK-4759,1 53829U 22114M   23174.41779926  .00000762  00000-0  65967-4 0  9991,2 53829  53.2166  69.6527 0001148 100.4380 259.6742 15.08839423 42797,6917.882,95.438,540.541,538.953,0.0
53829.0,STARLINK-4759,PAYLOAD,2023-06-24 16:13:57,15.08838431,0.0001173,53.2167,64.0005,84.3569,275.7557,9.7083e-05,1.258e-05,0.0,0 STARLINK-4759,1 53829U 22114M   23175.67636332  .00001258  00000-0  97083-4 0  9998,2 53829  53.2167  64.0005 0001173  84.3569 275.7557 15.08838431 42987,6917.885,95.438,540.562,538.939,0.0
53829.0,STARLINK-4759,PAYLOAD,2023-06-26 01:37:03,15.08846389,0.0001222,53.2167,57.7539,88.2012,271.9121,0.0001299,1.78e-05,0.0,0 STARLINK-4759,1 53829U 22114M   23177.06740095  .00001780  00000-0  12990-3 0  9998,2 53829  53.2167  57.7539 0001222  88.2012 271.9121 15.08846389 43199,6917.861,95.437,540.571,538.88,0.0
53829.0,STARLINK-4759,PAYLOAD,2023-06-26 15:55:32,15.08838874,0.0001255,53.2158,55.0791,84.3203,275.7933,9.5126e-05,1.226e-05,0.0,0 STARLINK-4759,1 53829U 22114M   23177.66356599  .00001226  00000-0  95126-4 0  9994,2 53829  53.2158  55.0791 0001255  84.3203 275.7933 15.08838874 43288,6917.884,95.438,540.617,538.881,0.0
53829.0,STARLINK-4759,PAYLOAD,2023-06-27 20:32:28,15.08837776,0.0001112,53.2171,49.7249,92.78,267.3319,0.00012317,1.673e-05,0.0,0 STARLINK-4759,1 53829U 22114M   23178.85588720  .00001673  00000-0  12317-3 0  9995,2 53829  53.2171  49.7249 0001112  92.7800 267.3319 15.08837776 43464,6917.887,95.438,540.521,538.983,0.0
